EUTELSAT KONNECT VHTS   
1 53765U 22110A   22279.70000000 -.00000126  00000+0  00000+0 0  9999
2 53765   2.4830 140.9930 7501504 182.9140 195.3980  1.01548981   325
ARIANE 5 R/B            
1 53766U 22110B   22279.78430057  .00000279  00000+0  85084-3 0  9994
2 53766   3.3729 144.4665 8149733 181.5365 172.0796  1.26396537   371
1998-067UE              
1 53767U 98067UE  22279.68618196  .00056564  00000+0  89144-3 0  9999
2 53767  51.6410 143.8094 0002694   8.0087 352.0946 15.52994727  4712
BEAVERCUBE              
1 53768U 98067UF  22279.81758914  .00052394  00000+0  83103-3 0  9994
2 53768  51.6408 143.1850 0000597 346.8904  13.2071 15.52851940  4741
CLICK-A                 
1 53769U 98067UG  22279.81086826  .00075235  00000+0  11478-2 0  9995
2 53769  51.6417 143.1443 0001348 323.6499  36.4400 15.53771679  4741
1998-067UH              
1 53770U 98067UH  22279.86552911  .00098586  00000+0  14508-2 0  9996
2 53770  51.6407 142.7563 0002111 324.7066  35.3785 15.54638251  4755
JAGSAT                  
1 53771U 98067UJ  22279.79872125  .00105945  00000+0  15425-2 0  9998
2 53771  51.6404 143.0594 0002067 322.3223  37.7623 15.54895962  4739
STARLINK-4718           
1 53773U 22111A   22280.00001157 -.01189990  00000+0 -12059-1 0  9996
2 53773  53.2174 138.7916 0001706 138.5383  85.2280 15.67223203  4010
STARLINK-4719           
1 53774U 22111B   22280.00001157 -.01193610  00000+0 -12088-1 0  9993
2 53774  53.2175 138.7897 0001677 141.2592  83.2761 15.67246979  4017
STARLINK-4722           
1 53775U 22111C   22280.00001157  .00038010  00000+0  27376-3 0  9991
2 53775  53.2146 138.7318 0001051 133.4583 117.9675 15.73221869  4010
STARLINK-4708           
1 53776U 22111D   22280.00001157  .00011160  00000+0  83840-4 0  9998
2 53776  53.2146 138.7353 0001303 123.2723 126.9917 15.73196881  4017
STARLINK-4664           
1 53777U 22111E   22279.94646991 -.00122170  00000+0 -87610-3 0  9995
2 53777  53.2159 138.9975 0001418 124.3826 184.7653 15.73269612  1308
STARLINK-4709           
1 53778U 22111F   22280.25001157  .00167574  00000+0  11810-2 0  9994
2 53778  53.2165 137.4975 0001226 140.5030  87.0465 15.73075263  4052
STARLINK-4706           
1 53779U 22111G   22280.00001157  .00178472  00000+0  12560-2 0  9990
2 53779  53.2170 138.7326 0001351 125.9812 127.2490 15.73073062  4013
STARLINK-4678           
1 53780U 22111H   22280.25001157 -.00024750  00000+0 -17231-3 0  9991
2 53780  53.2156 137.4961 0001395 144.8969  83.8821 15.73218096  4058
STARLINK-4462           
1 53781U 22111J   22280.00001157  .00425135  00000+0  28545-2 0  9994
2 53781  53.2162 138.7283 0001461 159.2984  95.8632 15.73431415  4019
STARLINK-4679           
1 53782U 22111K   22280.00001157  .00119615  00000+0  84524-3 0  9998
2 53782  53.2162 138.7307 0001650 133.8642 119.8918 15.73181893  4012
STARLINK-4536           
1 53783U 22111L   22280.25001157 -.00093750  00000+0 -66693-3 0  9996
2 53783  53.2159 137.4884 0001406 145.1656  87.3939 15.73341657  4057
STARLINK-4687           
1 53784U 22111M   22280.00001157  .00051535  00000+0  36989-3 0  9998
2 53784  53.2172 138.7305 0001805 145.6654 108.6979 15.73165358  4010
STARLINK-4638           
1 53785U 22111N   22280.25001157 -.00041317  00000+0 -17679-3 0  9990
2 53785  53.2028 135.8575 0006841 330.8513 325.0920 15.84145940  4079
STARLINK-4631           
1 53786U 22111P   22280.00001157 -.00039619  00000+0 -27889-3 0  9990
2 53786  53.2151 138.7244 0001407 133.6884 121.9388 15.73225493  4010
STARLINK-4743           
1 53787U 22111Q   22280.00001157  .00127299  00000+0  89989-3 0  9990
2 53787  53.2163 138.7201 0001811 140.8169 117.7516 15.73143709  4017
STARLINK-4744           
1 53788U 22111R   22280.00001157  .00030210  00000+0  13212-3 0  9993
2 53788  53.2031 137.1041 0006823 330.3232 345.0875 15.84423179  4032
STARLINK-4666           
1 53789U 22111S   22280.25001157 -.00049414  00000+0 -34893-3 0  9997
2 53789  53.2154 137.4792 0001149  77.6020 158.8569 15.73253489  4052
STARLINK-4734           
1 53790U 22111T   22280.00001157  .00086151  00000+0  61416-3 0  9990
2 53790  53.2158 138.7216 0001347 115.5991 142.4142 15.73116200  4013
STARLINK U              
1 53791U 22111U   22279.87890639  .00197990  00000+0  75828-3 0  9991
2 53791  53.2028 137.6792 0007011 330.3191  29.7436 15.86349591  4096
STARLINK-4739           
1 53792U 22111V   22279.94646991 -.00094708  00000+0 -67615-3 0  9990
2 53792  53.2167 138.9853 0001960 142.1860 173.5131 15.73261196  1303
STARLINK-4728           
1 53793U 22111W   22280.00001157  .00172463  00000+0  12145-2 0  9999
2 53793  53.2174 138.7177 0001166 116.2349 144.7415 15.73077589  4018
STARLINK-4730           
1 53794U 22111X   22280.00001157  .00124992  00000+0  88326-3 0  9999
2 53794  53.2154 138.7154 0001343 125.5945 134.6930 15.73161251  4014
STARLINK-4742           
1 53795U 22111Y   22280.00001157  .00125250  00000+0  88518-3 0  9991
2 53795  53.2159 138.7147 0002038 143.2403 118.2127 15.73156935  4019
STARLINK Z              
1 53796U 22111Z   22279.87745958  .00188099  00000+0  71752-3 0  9991
2 53796  53.2025 137.6687 0006433 326.9898  33.0726 15.86464347  4854
STARLINK-4723           
1 53797U 22111AA  22280.25001157 -.00185354  00000+0 -13435-2 0  9998
2 53797  53.2171 137.4761 0001022 107.4839 131.9801 15.73235981  4054
STARLINK-4712           
1 53798U 22111AB  22280.00001157  .00086250  00000+0  61439-3 0  9993
2 53798  53.2169 138.7145 0001311 119.3061 142.8317 15.73134113  4005
STARLINK-4710           
1 53799U 22111AC  22280.00001157  .00139264  00000+0  98471-3 0  9994
2 53799  53.2173 138.7118 0001337 112.9441 151.0068 15.73095267  4001
STARLINK-4720           
1 53800U 22111AD  22280.00001157  .00130704  00000+0  92261-3 0  9998
2 53800  53.2166 138.7114 0001363 100.3462 162.9468 15.73165965  4003
STARLINK-4715           
1 53801U 22111AE  22280.00001157 -.00027570  00000+0 -19245-3 0  9998
2 53801  53.2157 138.7064 0000948 104.8732 160.3002 15.73226932  4003
STARLINK-4726           
1 53802U 22111AF  22280.00001157  .00009998  00000+0  75547-4 0  9999
2 53802  53.2162 138.7081 0001049 103.4123 161.1603 15.73205915  4005
STARLINK-4727           
1 53803U 22111AG  22280.00001157  .00077517  00000+0  55019-3 0  9993
2 53803  53.2154 138.7024 0000983 104.9100 161.5163 15.73261954  4001
STARLINK-4729           
1 53804U 22111AH  22279.94646991 -.00068118  00000+0 -48385-3 0  9993
2 53804  53.2157 138.9695 0001247 115.1994 207.0923 15.73248784  1306
STARLINK-4763           
1 53805U 22111AJ  22280.00001157  .00046996  00000+0  33775-3 0  9997
2 53805  53.2155 138.7012 0001238 109.1464 157.8146 15.73175110  4002
STARLINK-4768           
1 53806U 22111AK  22280.25001157 -.00003859  00000+0 -23082-4 0  9999
2 53806  53.2174 137.4667 0001699 114.0696 130.0840 15.73205676  4048
BLUEWALKER-3            
1 53807U 22111AL  22279.92078689  .00003747  00000+0  19496-3 0  9993
2 53807  53.2029 149.4495 0013173  10.1844 349.9417 15.18404471  3943
FALCON 9 DEB            
1 53808U 22111AM  22279.89183574  .00580215  14884-3  14911-2 0  9995
2 53808  53.2007 137.0235 0008343 291.7476  68.2664 15.94634105  4103
FALCON 9 DEB            
1 53809U 22111AN  22279.85217605  .00279161  39428-4  94608-3 0  9994
2 53809  53.1996 137.4940 0006226 331.8733  28.1956 15.89442356  5140
FALCON 9 DEB            
1 53810U 22111AP  22279.84302621  .00268148  37377-4  88374-3 0  9995
2 53810  53.2002 137.4326 0008830 335.2326  24.8276 15.89967564  4092
FALCON 9 DEB            
1 53811U 22111AQ  22279.87516479  .00269906  00000+0  95786-3 0  9993
2 53811  53.1947 137.6394 0006627 297.7539  62.2815 15.87721628  4099
FALCON 9 DEB            
1 53812U 22111AR  22279.87806714  .00199069  00000+0  75312-3 0  9993
2 53812  53.1976 137.6627 0008362 314.0095  46.0241 15.86582760  4093
CHINASAT 1E (ZX 1E)     
1 53813U 22112A   22279.88035454 -.00000170  00000+0  00000+0 0  9994
2 53813   1.4665 280.1989 0002668 251.2831 242.3293  1.00269575   320
CZ-7A R/B               
1 53814U 22112B   22280.08577227  .00712740 -73308-5  10000-3 0  9993
2 53814  13.9030 197.7713 5041258 202.4505 339.0364  5.81111053   684
STRIX-1                 
1 53815U 22113A   22280.10355445  .00005267  00000+0  42807-3 0  9995
2 53815  97.6608 330.6998 0012225 227.4872 132.5349 14.99956195  3189
ELECTRON KICK STAGE R/B 
1 53817U 22113C   22279.89765235  .00006186  00000+0  49629-3 0  9993
2 53817  97.6586 330.5084 0012697 222.0503 137.9750 15.00379715  3158
STARLINK-4749           
1 53818U 22114A   22280.25001157 -.00175418  00000+0 -12733-2 0  9995
2 53818  53.2166 168.7083 0001099 111.6371  55.7660 15.73170690  3441
STARLINK-4738           
1 53819U 22114B   22280.00001157 -.00021814  00000+0 -15101-3 0  9992
2 53819  53.2156 169.9354 0001012  75.5521 117.9924 15.73262094  3405
STARLINK-4758           
1 53820U 22114C   22280.25001157 -.00489850  00000+0 -36610-2 0  9996
2 53820  53.2163 168.7062 0001200 105.3818  62.5391 15.73403441  3448
STARLINK-4752           
1 53821U 22114D   22280.00001157 -.00000521  00000+0  70596-6 0  9998
2 53821  53.2175 169.9407 0001143 110.9020  82.0138 15.73204225  3402
STARLINK-4713           
1 53822U 22114E   22280.15305472  .09465192  11705-4  35796-2 0  9997
2 53822  53.2182 165.8714 0033444 112.4355  12.5288 16.21940736  3462
STARLINK-4748           
1 53823U 22114F   22280.00001157 -.01218337  00000+0 -62654-2 0  9990
2 53823  53.2174 168.5284 0004803 271.3279 249.6731 15.83037221  3428
STARLINK-4757           
1 53824U 22114G   22280.25001157 -.00431569  00000+0 -32036-2 0  9992
2 53824  53.2170 168.7025 0001424  76.4850  94.9667 15.73397127  3449
STARLINK-4751           
1 53825U 22114H   22280.25001157 -.00476665  00000+0 -35558-2 0  9991
2 53825  53.2165 168.7002 0001258  76.1241  94.7561 15.73409785  3440
